DMSP 5D-3 F16 (USA 172) 
1 28054U 03048A   26065.81869306  .00000185  00000+0  12030-3 0  9996
2 28054  98.9996  88.9242 0008165  79.8851  34.1451 14.14460837155010
METEOSAT-9 (MSG-2)      
1 28912U 05049B   26065.59066247  .00000122  00000+0  00000+0 0  9991
2 28912   9.1298  55.1603 0001599 224.1198 143.4443  1.00278557  5973
DMSP 5D-3 F17 (USA 191) 
1 29522U 06050A   26065.77878656  .00000251  00000+0  15205-3 0  9997
2 29522  98.7414  74.4331 0009932 355.3199   4.7880 14.14962458997933
FENGYUN 3A              
1 32958U 08026A   26065.56341510  .00000160  00000+0  96360-4 0  9991
2 32958  98.6795   8.3685 0009753  66.3473 293.8727 14.19545242920844
GOES 14                 
1 35491U 09033A   26065.76390990  .00000121  00000+0  00000+0 0  9991
2 35491   1.4253  84.3866 0001768 257.0298 298.4685  1.00100447  5564
DMSP 5D-3 F18 (USA 210) 
1 35951U 09057A   26065.81288955  .00000351  00000+0  20514-3 0  9992
2 35951  98.8961  46.8520 0010963 176.4457 183.6796 14.14833863845114
EWS-G2 (GOES 15)        
1 36411U 10008A   26065.80811009  .00000018  00000+0  00000+0 0  9997
2 36411   1.0146  85.1017 0002095  17.7080  56.0929  1.00269857 58619
COMS 1                  
1 36744U 10032A   26065.38725536 -.00000347  00000+0  00000+0 0  9991
2 36744   4.5407  76.8433 0001247 292.8421  62.0076  1.00271769 50053
FENGYUN 3B              
1 37214U 10059A   26065.84114209  .00000311  00000+0  18432-3 0  9995
2 37214  98.9768 111.3587 0023025 115.9060 353.7863 14.14817356792953
SUOMI NPP               
1 37849U 11061A   26065.85335903  .00000132  00000+0  83832-4 0  9998
2 37849  98.7867   7.4786 0000403 256.6825 103.4306 14.19542599743922
METEOSAT-10 (MSG-3)     
1 38552U 12035B   26065.79554338 -.00000008  00000+0  00000+0 0  9994
2 38552   4.4292  61.4529 0002490 283.3598 106.3340  1.00267966 49834
METOP-B                 
1 38771U 12049A   26065.77017151  .00000169  00000+0  97062-4 0  9993
2 38771  98.6648 119.2501 0001184 281.9884  78.1161 14.21443683698713
INSAT-3D                
1 39216U 13038B   26065.78864368 -.00000342  00000+0  00000+0 0  9993
2 39216   1.6614  83.8811 0001687 248.1233 245.9026  1.00272492 46055
FENGYUN 3C              
1 39260U 13052A   26065.84884334  .00000175  00000+0  10998-3 0  9994
2 39260  98.4888  44.4769 0013976 321.8432  38.1753 14.15727926644083
METEOR-M 2              
1 40069U 14037A   26065.86770359 -.00000056  00000+0 -63933-5 0  9999
2 40069  98.5024  45.2831 0005511 346.2476  13.8551 14.21426377604781
HIMAWARI-8              
1 40267U 14060A   26064.96764973 -.00000282  00000+0  00000+0 0  9990
2 40267   0.0252 238.2083 0000720  99.4681 315.0191  1.00271621 41726
FENGYUN 2G              
1 40367U 14090A   26065.53000323 -.00000305  00000+0  00000+0 0  9996
2 40367   5.3795  74.0622 0001686 150.5335 230.1497  1.00273916 40970
